[{"OBJECT_NAME":"SJ-11-01","OBJECT_ID":"2009-061A","EPOCH":"2026-03-09T22:23:06.372960","MEAN_MOTION":14.6357145,"ECCENTRICITY":0.0010599,"INCLINATION":97.9987,"RA_OF_ASC_NODE":52.7837,"ARG_OF_PERICENTER":343.574,"MEAN_ANOMALY":101.0983,"EPHEMERIS_TYPE":0,"CLASSIFICATION_TYPE":"U","NORAD_CAT_ID":36088,"ELEMENT_SET_NO":999,"REV_AT_EPOCH":86997,"BSTAR":0.00019291799,"MEAN_MOTION_DOT":9.56e-6,"MEAN_MOTION_DDOT":0},{"OBJECT_NAME":"RASAT","OBJECT_ID":"2011-044D","EPOCH":"2026-03-09T22:51:46.950336","MEAN_MOTION":14.68056816,"ECCENTRICITY":0.00213517,"INCLINATION":98.0555,"RA_OF_ASC_NODE":161.8881,"ARG_OF_PERICENTER":144.0849,"MEAN_ANOMALY":327.0051,"EPHEMERIS_TYPE":0,"CLASSIFICATION_TYPE":"U","NORAD_CAT_ID":37791,"ELEMENT_SET_NO":999,"REV_AT_EPOCH":77862,"BSTAR":0.00012728627,"MEAN_MOTION_DOT":6.84e-6,"MEAN_MOTION_DDOT":0}]
